      2.10          N: GNSS NAV DATA                        RINEX VERSION / TYPE
fic2rin                                 08/14/2024 00:59:02 PGM / RUN BY / DATE
                                                            END OF HEADER
7  24  8 13  1 59 44.0 -.527608208358D-04  .602540239925D-11  .000000000000D+00
     .159000000000D+03 -.850000000000D+01  .492699094323D-08  .239074278111D+01
    -.642612576485D-06  .186948170885D-01  .815652310848D-05  .515361464882D+04
     .179984000000D+06  .689178705215D-07 -.249758785883D+01 -.359490513802D-06
     .950427113859D+00  .216750000000D+03 -.210525047193D+01 -.778353850134D-08
    -.134648465792D-09  .100000000000D+01  .232700000000D+04  .000000000000D+00
     .240000000000D+01  .000000000000D+00 -.111758708954D-07  .159000000000D+03
     .172800000000D+06  .400000000000D+01
12 24  8 13 18  0  0.0 -.530077610165D-03 -.295585778076D-11  .000000000000D+00
     .230000000000D+02  .613750000000D+02  .419160316853D-08 -.250170495065D+01
     .321492552757D-05  .865363073535D-02  .912323594093D-05  .515361343956D+04
     .237600000000D+06  .596046447754D-07 -.138193991379D+01 -.707805156708D-07
     .961571916370D+00  .203718750000D+03  .145959427380D+01 -.762746057149D-08
    -.284654714154D-09  .100000000000D+01  .232700000000D+04  .000000000000D+00
     .240000000000D+01  .000000000000D+00 -.125728547573D-07  .230000000000D+02
     .230400000000D+06  .400000000000D+01
10 24  8 13 18  0  0.0 -.929962843657D-04 -.110276232590D-10  .000000000000D+00
     .120000000000D+02 -.697500000000D+02  .392194907921D-08  .304094532047D+01
    -.365078449249D-05  .952261430211D-02  .748224556446D-05  .515368990326D+04
     .237600000000D+06 -.223517417908D-07  .169258543747D+01 -.145286321640D-06
     .984969052783D+00  .250531250000D+03 -.238001597379D+01 -.756281502160D-08
     .146077513286D-09  .100000000000D+01  .232700000000D+04  .000000000000D+00
     .240000000000D+01  .000000000000D+00  .232830643654D-08  .120000000000D+02
     .230400000000D+06  .400000000000D+01
6  24  8 13 18  0  0.0  .100600533187D-03 -.243289832724D-10  .000000000000D+00
     .220000000000D+02 -.297187500000D+02  .396980821559D-08 -.866359035720D+00
    -.181235373020D-05  .294887332711D-02  .389479100704D-05  .515367622948D+04
     .237600000000D+06 -.353902578354D-07  .658842815882D+00 -.931322574615D-08
     .989736378036D+00  .319375000000D+03 -.730745647632D+00 -.801640534403D-08
     .650027076237D-10  .100000000000D+01  .232700000000D+04  .000000000000D+00
     .240000000000D+01  .000000000000D+00  .372529029846D-08  .220000000000D+02
     .230400000000D+06  .400000000000D+01
26 24  8 13 18  0  0.0  .101190991700D-03 -.761701812735D-11  .000000000000D+00
     .600000000000D+01  .445625000000D+02  .499270796633D-08  .293617054685D+01
     .226311385632D-05  .904613349121D-02  .859051942825D-05  .515368335152D+04
     .237600000000D+06 -.186264514923D-08 -.153340207359D+01 -.763684511185D-07
     .930321796208D+00  .198031250000D+03  .544416062806D+00 -.809498004555D-08
    -.228938107620D-09  .100000000000D+01  .232700000000D+04  .000000000000D+00
     .240000000000D+01  .000000000000D+00  .651925802231D-08  .600000000000D+01
     .230400000000D+06  .400000000000D+01
22 24  8 13 18  0  0.0 -.508520752192D-04 -.420641299570D-11  .000000000000D+00
     .300000000000D+02  .664687500000D+02  .425517724521D-08  .156502564162D+01
     .332109630108D-05  .141968537355D-01  .839121639729D-05  .515369639015D+04
     .237600000000D+06  .352039933205D-06 -.136086622922D+01 -.122934579849D-06
     .960348966595D+00  .213281250000D+03 -.112510731086D+01 -.774425115057D-08
    -.243938732456D-09  .100000000000D+01  .232700000000D+04  .000000000000D+00
     .240000000000D+01  .000000000000D+00 -.111758708954D-07  .300000000000D+02
     .230400000000D+06  .400000000000D+01
24 24  8 13 18  0  0.0 -.486113131046D-03 -.682121026330D-12  .000000000000D+00
     .390000000000D+02 -.103125000000D+01  .545236997024D-08 -.801664004272D+00
     .745058059692D-08  .156779704848D-01  .689551234245D-05  .515369537354D+04
     .237600000000D+06  .111758708954D-07 -.259643675215D+01  .318512320518D-06
     .934202828635D+00  .230968750000D+03  .996564400416D+00 -.853928426689D-08
    -.241795786051D-09  .100000000000D+01  .232700000000D+04  .000000000000D+00
     .240000000000D+01  .000000000000D+00  .232830643654D-08  .390000000000D+02
     .230400000000D+06  .400000000000D+01
32 24  8 13 18  0  0.0 -.606021843851D-03  .272848410532D-11  .000000000000D+00
     .220000000000D+02 -.317812500000D+02  .456054710795D-08  .177733125483D+01
    -.173598527908D-05  .781483738683D-02  .796467065811D-05  .515371144295D+04
     .237600000000D+06 -.223517417908D-06  .272795544131D+01 -.165775418282D-06
     .962803952329D+00  .230093750000D+03 -.213331195586D+01 -.792783022595D-08
     .225009372544D-09  .100000000000D+01  .232700000000D+04  .000000000000D+00
     .240000000000D+01  .000000000000D+00  .931322574615D-09  .220000000000D+02
     .230400000000D+06  .400000000000D+01
16 24  8 13 18  0  0.0 -.209558755159D-03  .104591890704D-10  .000000000000D+00
     .220000000000D+02  .537812500000D+02  .431232248268D-08  .201507526672D+01
     .260770320892D-05  .138560431078D-01  .850670039654D-05  .515360786438D+04
     .237600000000D+06 -.203028321266D-06 -.136416173454D+01 -.204890966415D-06
     .961013751680D+00  .218593750000D+03  .840096856172D+00 -.788104256277D-08
    -.234652631367D-09  .100000000000D+01  .232700000000D+04  .000000000000D+00
     .240000000000D+01  .000000000000D+00 -.102445483208D-07  .220000000000D+02
     .230400000000D+06  .400000000000D+01
8  24  8 13 18  0  0.0  .314201693982D-03  .146656020661D-10  .000000000000D+00
     .340000000000D+02  .714062500000D+02  .454947521819D-08  .107133611546D+01
     .375136733055D-05  .956279982347D-02  .527314841747D-05  .515367367554D+04
     .237600000000D+06 -.782310962677D-07 -.439101849852D+00  .150874257088D-06
     .952126154230D+00  .272875000000D+03  .366640177544D+00 -.821855662159D-08
    -.839320675361D-10  .100000000000D+01  .232700000000D+04  .000000000000D+00
     .240000000000D+01  .000000000000D+00  .465661287308D-08  .340000000000D+02
     .230400000000D+06  .400000000000D+01
5  24  8 13 18  0  0.0 -.183084048331D-03 -.125055521494D-11  .000000000000D+00
     .920000000000D+02 -.915625000000D+02  .429767901558D-08  .139593929957D+01
    -.470317900181D-05  .594068528153D-02  .737234950066D-05  .515366130066D+04
     .237600000000D+06 -.150874257088D-06  .164275772501D+01 -.633299350739D-07
     .972243549732D+00  .246625000000D+03  .130935653401D+01 -.793604485384D-08
     .168935608275D-09  .100000000000D+01  .232700000000D+04  .000000000000D+00
     .240000000000D+01  .000000000000D+00 -.107102096081D-07  .920000000000D+02
     .230400000000D+06  .400000000000D+01
7  24  8 13 18  0  0.0 -.524106435478D-04  .602540239925D-11  .000000000000D+00
     .174000000000D+03  .421875000000D+01  .475198365348D-08 -.177158516716D+01
     .158324837685D-06  .186927921604D-01  .741146504879D-05  .515361350060D+04
     .237600000000D+06  .381842255592D-06 -.249804710978D+01 -.651925802231D-07
     .950422372541D+00  .228281250000D+03 -.210520531165D+01 -.776996650744D-08
    -.170007081477D-09  .100000000000D+01  .232700000000D+04  .000000000000D+00
     .240000000000D+01  .000000000000D+00 -.111758708954D-07  .174000000000D+03
     .230400000000D+06  .400000000000D+01
4  24  8 13 18  0  0.0  .423464458436D-03  .750333128963D-11  .000000000000D+00
     .108000000000D+03 -.268750000000D+02  .460483466699D-08  .740911850113D+00
    -.138953328133D-05  .295158126391D-02  .744126737118D-05  .515371435356D+04
     .237600000000D+06 -.931322574615D-08  .277314516072D+01 -.316649675369D-07
     .965789165407D+00  .234281250000D+03 -.298766540661D+01 -.800033324599D-08
     .120362156424D-09  .100000000000D+01  .232700000000D+04  .000000000000D+00
     .240000000000D+01  .000000000000D+00 -.465661287308D-08  .876000000000D+03
     .230400000000D+06  .400000000000D+01
9  24  8 13 18  0  0.0  .312765594572D-03  .155750967679D-10  .000000000000D+00
     .460000000000D+02 -.309062500000D+02  .466733727047D-08  .155921980545D+01
    -.179372727871D-05  .298353994731D-02  .772811472416D-05  .515361316299D+04
     .237600000000D+06  .372529029846D-08  .271303605561D+01 -.204890966415D-07
     .959424711045D+00  .226500000000D+03  .197383481755D+01 -.795390274055D-08
     .167506977338D-09  .100000000000D+01  .232700000000D+04  .000000000000D+00
     .240000000000D+01  .000000000000D+00  .931322574615D-09  .460000000000D+02
     .230400000000D+06  .400000000000D+01
27 24  8 13 18  0  0.0 -.329609028995D-04 -.454747350886D-12  .000000000000D+00
     .500000000000D+02  .665000000000D+02  .438018245218D-08  .112142870680D+01
     .341981649399D-05  .125531542581D-01  .564381480217D-05  .515368825912D+04
     .237600000000D+06 -.135973095894D-06 -.411972559259D+00  .100582838058D-06
     .961169188189D+00  .270500000000D+03  .797420703590D+00 -.825320092180D-08
    -.939324840936D-10  .100000000000D+01  .232700000000D+04  .000000000000D+00
     .240000000000D+01  .000000000000D+00  .186264514923D-08  .500000000000D+02
     .230400000000D+06  .400000000000D+01
29 24  8 13 18  0  0.0 -.584264751524D-03  .216004991671D-11  .000000000000D+00
     .330000000000D+02  .731250000000D+02  .417088801994D-08  .102977611232D+01
     .383332371712D-05  .300968997180D-02  .514462590218D-05  .515355529213D+04
     .237600000000D+06  .633299350739D-07 -.328006882460D+00  .279396772385D-07
     .970423191027D+00  .284375000000D+03  .265254104002D+01 -.801461955536D-08
     .119647840956D-09  .100000000000D+01  .232700000000D+04  .000000000000D+00
     .240000000000D+01  .000000000000D+00 -.977888703346D-08  .330000000000D+02
     .230400000000D+06  .400000000000D+01
